CTC2_L_00227001-01
1 10000U 24363ER  26075.70042824  .00000000  00000+0  00000-0 0  9995
2 10000  60.0000   0.0000 0000000   0.0000   0.0000 14.24551792    10
CTC2_L_00227001-02
1 10001U 24798DF  26075.70042824  .00000000  00000+0  00000-0 0  9998
2 10001  60.0000   0.0000 0000000   0.0000  90.0000 14.24551792    10
CTC2_L_00227001-03
1 10002U 24489BM  26075.70042824  .00000000  00000+0  00000-0 0  9996
2 10002  60.0000   0.0000 0000000   0.0000 180.0000 14.24551792    11
CTC2_L_00227001-04
1 10003U 24335OD  26075.70042824  .00000000  00000+0  00000-0 0  9997
2 10003  60.0000   0.0000 0000000   0.0000 270.0000 14.24551792    12
CTC2_L_00227002-01
1 10004U 25551DW  26075.70042824  .00000000  00000+0  00000-0 0  9999
2 10004  60.0000  12.0000 0000000   0.0000  12.0000 14.24551792    10
CTC2_L_00227002-02
1 10005U 25107UF  26075.70042824  .00000000  00000+0  00000-0 0  9997
2 10005  60.0000  12.0000 0000000   0.0000 102.0000 14.24551792    11
CTC2_L_00227002-03
1 10006U 22906PC  26075.70042824  .00000000  00000+0  00000-0 0  9992
2 10006  60.0000  12.0000 0000000   0.0000 192.0000 14.24551792    11
CTC2_L_00227002-04
1 10007U 22884ZB  26075.70042824  .00000000  00000+0  00000-0 0  9998
2 10007  60.0000  12.0000 0000000   0.0000 282.0000 14.24551792    12
CTC2_L_00227003-01
1 10008U 25540FE  26075.70042824  .00000000  00000+0  00000-0 0  9991
2 10008  60.0000  24.0000 0000000   0.0000  24.0000 14.24551792    10
CTC2_L_00227003-02
1 10009U 25064DX  26075.70042824  .00000000  00000+0  00000-0 0  9993
2 10009  60.0000  24.0000 0000000   0.0000 114.0000 14.24551792    11
CTC2_L_00227003-03
1 10010U 24900HT  26075.70042824  .00000000  00000+0  00000-0 0  9993
2 10010  60.0000  24.0000 0000000   0.0000 204.0000 14.24551792    13
CTC2_L_00227003-04
1 10011U 22626BB  26075.70042824  .00000000  00000+0  00000-0 0  9997
2 10011  60.0000  24.0000 0000000   0.0000 294.0000 14.24551792    13
CTC2_L_00227004-01
1 10012U 26941DU  26075.70042824  .00000000  00000+0  00000-0 0  9992
2 10012  60.0000  36.0000 0000000   0.0000  36.0000 14.24551792    11
CTC2_L_00227004-02
1 10013U 22039UD  26075.70042824  .00000000  00000+0  00000-0 0  9997
2 10013  60.0000  36.0000 0000000   0.0000 126.0000 14.24551792    12
CTC2_L_00227004-03
1 10014U 22158YA  26075.70042824  .00000000  00000+0  00000-0 0  9990
2 10014  60.0000  36.0000 0000000   0.0000 216.0000 14.24551792    13
CTC2_L_00227004-04
1 10015U 25360UX  26075.70042824  .00000000  00000+0  00000-0 0  9999
2 10015  60.0000  36.0000 0000000   0.0000 306.0000 14.24551792    14
CTC2_L_00227005-01
1 10016U 22887J   26075.70042824  .00000000  00000+0  00000-0 0  9991
2 10016  60.0000  48.0000 0000000   0.0000  48.0000 14.24551792    11
CTC2_L_00227005-02
1 10017U 24580PG  26075.70042824  .00000000  00000+0  00000-0 0  9994
2 10017  60.0000  48.0000 0000000   0.0000 138.0000 14.24551792    12
CTC2_L_00227005-03
1 10018U 26149VI  26075.70042824  .00000000  00000+0  00000-0 0  9998
2 10018  60.0000  48.0000 0000000   0.0000 228.0000 14.24551792    13
CTC2_L_00227005-04
1 10019U 24399CX  26075.70042824  .00000000  00000+0  00000-0 0  9994
2 10019  60.0000  48.0000 0000000   0.0000 318.0000 14.24551792    14
CTC2_L_00227006-01
1 10020U 26196UH  26075.70042824  .00000000  00000+0  00000-0 0  9993
2 10020  60.0000  60.0000 0000000   0.0000  60.0000 14.24551792    14
CTC2_L_00227006-02
1 10021U 25917NV  26075.70042824  .00000000  00000+0  00000-0 0  9994
2 10021  60.0000  60.0000 0000000   0.0000 150.0000 14.24551792    15
CTC2_L_00227006-03
1 10022U 22149SY  26075.70042824  .00000000  00000+0  00000-0 0  9999
2 10022  60.0000  60.0000 0000000   0.0000 240.0000 14.24551792    16
CTC2_L_00227006-04
1 10023U 26339JQ  26075.70042824  .00000000  00000+0  00000-0 0  9995
2 10023  60.0000  60.0000 0000000   0.0000 330.0000 14.24551792    17
CTC2_L_00227007-01
1 10024U 26993ME  26075.70042824  .00000000  00000+0  00000-0 0  9992
2 10024  60.0000  72.0000 0000000   0.0000  72.0000 14.24551792    14
CTC2_L_00227007-02
1 10025U 23699UJ  26075.70042824  .00000000  00000+0  00000-0 0  9993
2 10025  60.0000  72.0000 0000000   0.0000 162.0000 14.24551792    15
CTC2_L_00227007-03
1 10026U 26829GZ  26075.70042824  .00000000  00000+0  00000-0 0  9992
2 10026  60.0000  72.0000 0000000   0.0000 252.0000 14.24551792    16
CTC2_L_00227007-04
1 10027U 24719TZ  26075.70042824  .00000000  00000+0  00000-0 0  9999
2 10027  60.0000  72.0000 0000000   0.0000 342.0000 14.24551792    17
CTC2_L_00227008-01
1 10028U 26652KM  26075.70042824  .00000000  00000+0  00000-0 0  9998
2 10028  60.0000  84.0000 0000000   0.0000  84.0000 14.24551792    14
CTC2_L_00227008-02
1 10029U 23931AP  26075.70042824  .00000000  00000+0  00000-0 0  9996
2 10029  60.0000  84.0000 0000000   0.0000 174.0000 14.24551792    15
CTC2_L_00227008-03
1 10030U 23246RK  26075.70042824  .00000000  00000+0  00000-0 0  9997
2 10030  60.0000  84.0000 0000000   0.0000 264.0000 14.24551792    17
CTC2_L_00227008-04
1 10031U 24500MZ  26075.70042824  .00000000  00000+0  00000-0 0  9992
2 10031  60.0000  84.0000 0000000   0.0000 354.0000 14.24551792    18
CTC2_L_00227009-01
1 10032U 25697XA  26075.70042824  .00000000  00000+0  00000-0 0  9991
2 10032  60.0000  96.0000 0000000   0.0000  96.0000 14.24551792    15
CTC2_L_00227009-02
1 10033U 24937DG  26075.70042824  .00000000  00000+0  00000-0 0  9998
2 10033  60.0000  96.0000 0000000   0.0000 186.0000 14.24551792    16
CTC2_L_00227009-03
1 10034U 22867XO  26075.70042824  .00000000  00000+0  00000-0 0  9999
2 10034  60.0000  96.0000 0000000   0.0000 276.0000 14.24551792    17
CTC2_L_00227009-04
1 10035U 24299LT  26075.70042824  .00000000  00000+0  00000-0 0  9991
2 10035  60.0000  96.0000 0000000   0.0000   6.0000 14.24551792    19
CTC2_L_00227010-01
1 10036U 24877RS  26075.70042824  .00000000  00000+0  00000-0 0  9994
2 10036  60.0000 108.0000 0000000   0.0000 108.0000 14.24551792    17
CTC2_L_00227010-02
1 10037U 22796AK  26075.70042824  .00000000  00000+0  00000-0 0  9993
2 10037  60.0000 108.0000 0000000   0.0000 198.0000 14.24551792    17
CTC2_L_00227010-03
1 10038U 24972OL  26075.70042824  .00000000  00000+0  00000-0 0  9992
2 10038  60.0000 108.0000 0000000   0.0000 288.0000 14.24551792    18
CTC2_L_00227010-04
1 10039U 24349PB  26075.70042824  .00000000  00000+0  00000-0 0  9991
2 10039  60.0000 108.0000 0000000   0.0000  18.0000 14.24551792    10
CTC2_L_00227011-01
1 10040U 25485WE  26075.70042824  .00000000  00000+0  00000-0 0  9995
2 10040  60.0000 120.0000 0000000   0.0000 120.0000 14.24551792    10
CTC2_L_00227011-02
1 10041U 25556ZX  26075.70042824  .00000000  00000+0  00000-0 0  9995
2 10041  60.0000 120.0000 0000000   0.0000 210.0000 14.24551792    11
CTC2_L_00227011-03
1 10042U 25402UI  26075.70042824  .00000000  00000+0  00000-0 0  9996
2 10042  60.0000 120.0000 0000000   0.0000 300.0000 14.24551792    12
CTC2_L_00227011-04
1 10043U 24325EA  26075.70042824  .00000000  00000+0  00000-0 0  9990
2 10043  60.0000 120.0000 0000000   0.0000  30.0000 14.24551792    13
CTC2_L_00227012-01
1 10044U 23927JI  26075.70042824  .00000000  00000+0  00000-0 0  9998
2 10044  60.0000 132.0000 0000000   0.0000 132.0000 14.24551792    10
CTC2_L_00227012-02
1 10045U 26576WH  26075.70042824  .00000000  00000+0  00000-0 0  9992
2 10045  60.0000 132.0000 0000000   0.0000 222.0000 14.24551792    11
CTC2_L_00227012-03
1 10046U 22256RQ  26075.70042824  .00000000  00000+0  00000-0 0  9994
2 10046  60.0000 132.0000 0000000   0.0000 312.0000 14.24551792    12
CTC2_L_00227012-04
1 10047U 25883TY  26075.70042824  .00000000  00000+0  00000-0 0  9994
2 10047  60.0000 132.0000 0000000   0.0000  42.0000 14.24551792    13
CTC2_L_00227013-01
1 10048U 24067SR  26075.70042824  .00000000  00000+0  00000-0 0  9998
2 10048  60.0000 144.0000 0000000   0.0000 144.0000 14.24551792    10
CTC2_L_00227013-02
1 10049U 22206DB  26075.70042824  .00000000  00000+0  00000-0 0  9992
2 10049  60.0000 144.0000 0000000   0.0000 234.0000 14.24551792    11
CTC2_L_00227013-03
1 10050U 22489JH  26075.70042824  .00000000  00000+0  00000-0 0  9997
2 10050  60.0000 144.0000 0000000   0.0000 324.0000 14.24551792    13
CTC2_L_00227013-04
1 10051U 22886LK  26075.70042824  .00000000  00000+0  00000-0 0  9999
2 10051  60.0000 144.0000 0000000   0.0000  54.0000 14.24551792    14
CTC2_L_00227014-01
1 10052U 26440OZ  26075.70042824  .00000000  00000+0  00000-0 0  9990
2 10052  60.0000 156.0000 0000000   0.0000 156.0000 14.24551792    11
CTC2_L_00227014-02
1 10053U 26455NL  26075.70042824  .00000000  00000+0  00000-0 0  9997
2 10053  60.0000 156.0000 0000000   0.0000 246.0000 14.24551792    12
CTC2_L_00227014-03
1 10054U 26319KN  26075.70042824  .00000000  00000+0  00000-0 0  9997
2 10054  60.0000 156.0000 0000000   0.0000 336.0000 14.24551792    13
CTC2_L_00227014-04
1 10055U 22234HR  26075.70042824  .00000000  00000+0  00000-0 0  9990
2 10055  60.0000 156.0000 0000000   0.0000  66.0000 14.24551792    14
CTC2_L_00227015-01
1 10056U 23337FM  26075.70042824  .00000000  00000+0  00000-0 0  9996
2 10056  60.0000 168.0000 0000000   0.0000 168.0000 14.24551792    11
CTC2_L_00227015-02
1 10057U 24479H   26075.70042824  .00000000  00000+0  00000-0 0  9995
2 10057  60.0000 168.0000 0000000   0.0000 258.0000 14.24551792    12
CTC2_L_00227015-03
1 10058U 24818DJ  26075.70042824  .00000000  00000+0  00000-0 0  9993
2 10058  60.0000 168.0000 0000000   0.0000 348.0000 14.24551792    13
CTC2_L_00227015-04
1 10059U 25917SS  26075.70042824  .00000000  00000+0  00000-0 0  9995
2 10059  60.0000 168.0000 0000000   0.0000  78.0000 14.24551792    14
CTC2_L_00227016-01
1 10060U 24964IO  26075.70042824  .00000000  00000+0  00000-0 0  9998
2 10060  60.0000 180.0000 0000000   0.0000 180.0000 14.24551792    14
CTC2_L_00227016-02
1 10061U 25849WD  26075.70042824  .00000000  00000+0  00000-0 0  9992
2 10061  60.0000 180.0000 0000000   0.0000 270.0000 14.24551792    15
